GLOBALSTAR M067         
1 32263U 07048A   24245.53746384 -.00000088  00000+0  72009-4 0  9990
2 32263  51.9717 160.5338 0001396  72.7638  99.2853 12.40653085773654
GLOBALSTAR M070         
1 32264U 07048B   24245.62361073 -.00000041  00000+0  35076-3 0  9990
2 32264  51.9745 287.5763 0000560 147.1319  27.0067 12.62299098777220
GLOBALSTAR M066         
1 32265U 07048C   24245.56514903 -.00000055  00000+0  29123-3 0  9997
2 32265  51.9665 150.8266 0001272 321.1563 108.5338 12.53544065779469
GLOBALSTAR M068         
1 32266U 07048D   24245.56143196 -.00000046  00000+0  32015-3 0  9994
2 32266  51.9878 102.0681 0000444 158.9921 218.2644 12.62798227781092
GLOBALSTAR M079         
1 37188U 10054A   24245.57048470 -.00000065  00000+0  21915-3 0  9991
2 37188  52.0041 298.3857 0000470  79.2545  69.1866 12.62263459640002
GLOBALSTAR M074         
1 37189U 10054B   24245.40863691 -.00000059  00000+0  25087-3 0  9991
2 37189  52.0034 298.2455 0000567 116.7574 256.5927 12.62287908640593
GLOBALSTAR M076         
1 37190U 10054C   24245.54429094 -.00000044  00000+0  33247-3 0  9994
2 37190  52.0032 297.9803 0000823  94.6480  52.9342 12.62256260640328
GLOBALSTAR M077         
1 37191U 10054D   24245.61272865 -.00000089  00000+0  84063-4 0  9997
2 37191  52.0049 254.5409 0000276 104.6742  55.4343 12.62263267640709
